[{"OBJECT_NAME":"OTTER PUP 2","OBJECT_ID":"2025-135K","EPOCH":"2026-03-09T21:21:10.428192","MEAN_MOTION":15.22839777,"ECCENTRICITY":0.00032963,"INCLINATION":97.4591,"RA_OF_ASC_NODE":184.9166,"ARG_OF_PERICENTER":133.797,"MEAN_ANOMALY":226.3539,"EPHEMERIS_TYPE":0,"CLASSIFICATION_TYPE":"U","NORAD_CAT_ID":64537,"ELEMENT_SET_NO":999,"REV_AT_EPOCH":3976,"BSTAR":0.0012925798,"MEAN_MOTION_DOT":0.00030282,"MEAN_MOTION_DDOT":0},{"OBJECT_NAME":"CZ-6A DEB","OBJECT_ID":"2024-140FB","EPOCH":"2026-03-09T14:48:01.661760","MEAN_MOTION":15.0628726,"ECCENTRICITY":0.0079054,"INCLINATION":89.1878,"RA_OF_ASC_NODE":293.0208,"ARG_OF_PERICENTER":138.3366,"MEAN_ANOMALY":222.3932,"EPHEMERIS_TYPE":0,"CLASSIFICATION_TYPE":"U","NORAD_CAT_ID":60776,"ELEMENT_SET_NO":999,"REV_AT_EPOCH":8515,"BSTAR":0.002571,"MEAN_MOTION_DOT":0.00040709,"MEAN_MOTION_DDOT":0}]
